( pcb2gcode 2.5.0 )
( Software-independent Gcode )

( This file uses 4 drill bit sizes. )
( Bit sizes: [0.8mm] [1mm] [1.2mm] [1.5mm] )

G94       (Millimeters per minute feed rate.)
G21       (Units == Millimeters.)
G90       (Absolute coordinates.)
G00 S20000     (RPM spindle speed.)

G00 Z30.00000 (Retract)
T1
M5      (Spindle stop.)
G04 P1.00000
(MSG, Change tool bit to drill size 0.8mm)
M6      (Tool change.)
M0      (Temporary machine stop.)
M3      (Spindle on clockwise.)
G0 Z1.80000
G04 P1.00000

G81 R1.80000 Z-1.95000 F200.00000 X-60.03000 Y15.62900
X-63.18000 Y15.62900
X-69.65700 Y15.62900
X-72.83200 Y15.62900
X-79.30900 Y15.62900
X-82.35700 Y15.62900
X-89.11300 Y15.62900
X-92.13600 Y15.62900
X-98.61300 Y15.62900
X-101.66100 Y15.62900
X-108.26500 Y15.62900
X-111.31300 Y15.62900
X-117.63800 Y15.62900
X-129.30400 Y19.32400
X-131.84400 Y19.32400
X-117.63800 Y25.78900
X-118.01600 Y28.32500
X-118.01600 Y30.92500
X-118.01600 Y33.32500
X-114.61000 Y31.63600
X-112.07000 Y31.63600
X-111.31300 Y25.78900
X-108.26500 Y25.78900
X-108.49100 Y28.42500
X-108.49100 Y31.02500
X-108.49100 Y33.42500
X-104.95800 Y31.63600
X-102.41800 Y31.63600
X-101.66100 Y25.78900
X-98.61300 Y25.78900
X-98.83900 Y28.42500
X-98.83900 Y31.02500
X-98.83900 Y33.42500
X-95.30600 Y31.63600
X-92.76600 Y31.63600
X-92.13600 Y25.78900
X-89.11300 Y25.78900
X-89.18700 Y28.42500
X-89.18700 Y31.02500
X-89.18700 Y33.42500
X-85.65400 Y31.63600
X-83.11400 Y31.63600
X-82.35700 Y25.78900
X-79.30900 Y25.78900
X-79.53500 Y28.42500
X-79.53500 Y31.02500
X-79.53500 Y33.42500
X-76.00200 Y31.63600
X-73.46200 Y31.63600
X-72.83200 Y25.78900
X-69.65700 Y25.78900
X-69.88300 Y28.42500
X-69.88300 Y31.02500
X-69.88300 Y33.42500
X-66.35000 Y31.63600
X-63.81000 Y31.63600
X-63.18000 Y25.78900
X-60.03000 Y25.78900
X-60.35800 Y28.42500
X-60.35800 Y31.02500
X-60.35800 Y33.42500
X-56.82500 Y31.63600
X-54.28500 Y31.63600
X-53.65500 Y25.78900
X-50.48000 Y25.78900
X-50.83300 Y28.42500
X-50.83300 Y31.02500
X-50.83300 Y33.42500
X-47.30000 Y31.63600
X-44.76000 Y31.63600
X-44.00300 Y25.78900
X-53.65500 Y15.62900
X-50.48000 Y15.62900
X-44.00300 Y15.62900
X-40.95500 Y15.62900
X-34.35100 Y15.62900
X-31.30300 Y15.62900
X-24.69900 Y15.62900
X-21.65100 Y15.62900
X-15.04700 Y15.62900
X-11.99900 Y15.62900
X-5.39500 Y15.62900
X-2.60100 Y20.96300
X-5.39500 Y25.78900
X-6.15200 Y31.63600
X-8.69200 Y31.63600
X-12.22500 Y33.42500
X-12.22500 Y31.02500
X-12.22500 Y28.42500
X-11.99900 Y25.78900
X-15.04700 Y25.78900
X-15.80400 Y31.63600
X-18.34400 Y31.63600
X-21.87700 Y33.42500
X-21.87700 Y31.02500
X-21.87700 Y28.42500
X-21.65100 Y25.78900
X-24.69900 Y25.78900
X-25.45600 Y31.63600
X-27.99600 Y31.63600
X-31.52900 Y33.42500
X-31.52900 Y31.02500
X-31.52900 Y28.42500
X-31.30300 Y25.78900
X-34.35100 Y25.78900
X-40.95500 Y25.78900
X-41.18100 Y28.42500
X-41.18100 Y31.02500
X-41.18100 Y33.42500
X-37.64800 Y31.63600
X-35.10800 Y31.63600
X-31.81100 Y39.28000
X-35.10800 Y41.79600
X-37.64800 Y41.79600
X-41.46300 Y41.79100
X-41.46300 Y39.25100
X-44.76000 Y41.79600
X-47.30000 Y41.79600
X-51.11500 Y41.82000
X-51.11500 Y39.28000
X-54.28500 Y41.79600
X-56.82500 Y41.79600
X-60.51300 Y41.82000
X-60.51300 Y39.28000
X-63.81000 Y41.79600
X-66.35000 Y41.79600
X-70.16500 Y41.82000
X-70.16500 Y39.28000
X-73.46200 Y41.79600
X-76.00200 Y41.79600
X-79.81700 Y41.82000
X-79.81700 Y39.28000
X-83.11400 Y41.79600
X-85.65400 Y41.79600
X-89.46900 Y41.79100
X-89.46900 Y39.25100
X-92.76600 Y41.79600
X-95.30600 Y41.79600
X-99.12100 Y41.82000
X-99.12100 Y39.28000
X-102.41800 Y41.79600
X-104.95800 Y41.79600
X-108.77300 Y41.82000
X-108.77300 Y39.28000
X-112.07000 Y41.79600
X-114.61000 Y41.79600
X-125.53700 Y48.98000
X-125.53700 Y46.44000
X-129.30400 Y38.50100
X-131.84400 Y38.50100
X-145.09500 Y49.41100
X-145.09500 Y51.95100
X-152.80800 Y57.44700
X-152.80800 Y58.64700
X-152.80800 Y58.13271
X-152.80800 Y57.78986
X-152.80800 Y58.47557
X-152.80800 Y57.61843
X-152.80800 Y57.96129
X-152.80800 Y58.30414
X-156.60800 Y57.44700
X-156.60800 Y58.64700
X-156.60800 Y58.13271
X-156.60800 Y57.78986
X-156.60800 Y58.47557
X-156.60800 Y57.61843
X-156.60800 Y57.96129
X-156.60800 Y58.30414
X-155.86600 Y63.25100
X-162.62100 Y72.01700
X-154.22500 Y91.32500
X-153.02500 Y91.32500
X-153.53929 Y91.32500
X-153.88214 Y91.32500
X-153.19643 Y91.32500
X-154.05357 Y91.32500
X-153.71071 Y91.32500
X-153.36786 Y91.32500
X-153.12500 Y103.32500
X-154.32500 Y103.32500
X-153.81071 Y103.32500
X-153.46786 Y103.32500
X-154.15357 Y103.32500
X-153.29643 Y103.32500
X-153.63929 Y103.32500
X-153.98214 Y103.32500
X-153.12500 Y99.52500
X-154.32500 Y99.52500
X-153.81071 Y99.52500
X-153.46786 Y99.52500
X-154.15357 Y99.52500
X-153.29643 Y99.52500
X-153.63929 Y99.52500
X-153.98214 Y99.52500
X-153.02500 Y95.12500
X-154.22500 Y95.12500
X-153.71071 Y95.12500
X-153.36786 Y95.12500
X-154.05357 Y95.12500
X-153.19643 Y95.12500
X-153.53929 Y95.12500
X-153.88214 Y95.12500
X-156.83000 Y69.22300
X-154.29000 Y69.22300
X-155.86600 Y65.79100
X-154.59600 Y64.52100
X-151.64800 Y63.02500
X-148.40800 Y58.74700
X-148.40800 Y57.54700
X-148.40800 Y58.06129
X-148.40800 Y58.40414
X-148.40800 Y57.71843
X-148.40800 Y58.57557
X-148.40800 Y58.23271
X-148.40800 Y57.88986
X-144.60800 Y57.54700
X-144.60800 Y58.74700
X-144.60800 Y58.23271
X-144.60800 Y57.88986
X-144.60800 Y58.57557
X-144.60800 Y57.71843
X-144.60800 Y58.06129
X-144.60800 Y58.40414
X-141.48800 Y63.02500
X-137.22100 Y67.85100
X-141.59000 Y66.17500
X-141.59000 Y68.71500
X-134.47800 Y80.90700
X-132.82000 Y79.20700
X-134.49100 Y77.50700
X-132.81700 Y75.80700
X-134.47800 Y74.10700
X-132.85200 Y72.27100
X-127.72500 Y65.92100
X-117.79000 Y68.33400
X-117.79000 Y65.79400
X-117.79000 Y63.25400
X-117.79000 Y60.71400
X-127.72500 Y55.76100
X-117.86600 Y52.35700
X-117.86600 Y54.77100
X-110.17000 Y60.71400
X-110.17000 Y63.25400
X-110.17000 Y65.79400
X-110.17000 Y68.33400
X-110.17000 Y70.87400
X-110.17000 Y73.41400
X-117.79000 Y70.87400
X-117.79000 Y73.41400
X-117.79000 Y75.95400
X-117.79000 Y78.49400
X-107.68100 Y86.56000
X-107.68100 Y89.06000
X-112.92500 Y88.82500
X-112.92500 Y93.82500
X-115.52900 Y101.12500
X-103.10900 Y84.75700
X-103.10900 Y89.75700
X-96.68300 Y97.67100
X-91.88200 Y95.49700
X-88.71700 Y92.06800
X-86.17700 Y92.06800
X-86.04000 Y95.25800
X-83.50000 Y95.25800
X-81.09700 Y92.06800
X-83.63700 Y92.06800
X-91.88200 Y85.33700
X-88.71700 Y84.44800
X-86.17700 Y84.44800
X-83.63700 Y84.44800
X-81.09700 Y84.44800
X-78.03900 Y87.29700
X-78.29300 Y84.20900
X-75.75300 Y84.20900
X-69.78400 Y84.20900
X-65.00900 Y76.28400
X-68.18400 Y76.28400
X-68.17900 Y73.24100
X-70.71900 Y73.24100
X-70.72400 Y76.28400
X-74.02600 Y76.28400
X-74.02100 Y73.24100
X-76.56100 Y73.24100
X-76.56600 Y76.28400
X-79.86300 Y73.24100
X-79.74100 Y76.28400
X-82.28100 Y76.28400
X-82.40300 Y73.24100
X-88.07200 Y76.97000
X-90.61200 Y76.97000
X-93.15200 Y76.97000
X-95.69200 Y76.97000
X-98.23200 Y76.97000
X-100.77200 Y76.97000
X-103.31200 Y76.97000
X-110.17000 Y78.49400
X-110.17000 Y75.95400
X-103.31200 Y69.35000
X-100.77200 Y69.35000
X-98.23200 Y69.35000
X-95.69200 Y69.35000
X-93.15200 Y69.35000
X-90.61200 Y69.35000
X-88.07200 Y69.35000
X-91.65700 Y64.90500
X-94.19700 Y64.90500
X-91.62300 Y61.86200
X-94.16300 Y61.86200
X-97.49900 Y65.03200
X-100.03900 Y65.03200
X-103.31200 Y61.98400
X-105.85200 Y61.98400
X-100.00500 Y61.85700
X-97.46500 Y61.85700
X-103.31200 Y51.82400
X-105.85200 Y51.82400
X-105.72500 Y48.77600
X-103.18500 Y48.77600
X-100.00500 Y51.69700
X-97.46500 Y51.69700
X-99.88300 Y48.64900
X-97.34300 Y48.64900
X-94.16300 Y51.70200
X-91.62300 Y51.70200
X-88.55500 Y51.49400
X-88.55500 Y54.03400
X-82.51300 Y59.95200
X-79.97300 Y59.95200
X-82.40300 Y63.08100
X-79.86300 Y63.08100
X-76.59500 Y60.02800
X-74.05500 Y60.02800
X-76.56100 Y63.08100
X-74.02100 Y63.08100
X-70.71900 Y63.08100
X-68.17900 Y63.08100
X-70.67300 Y59.97700
X-68.13300 Y59.97700
X-64.86000 Y60.02800
X-62.32000 Y60.02800
X-64.88200 Y63.08100
X-62.34200 Y63.08100
X-64.88200 Y73.24100
X-62.34200 Y73.24100
X-62.46900 Y76.28400
X-60.64000 Y79.25600
X-63.07500 Y83.82500
X-59.88500 Y83.83500
X-59.88500 Y86.37500
X-63.07500 Y86.36500
X-59.87500 Y89.47500
X-59.87500 Y92.01500
X-59.88500 Y95.13500
X-62.87500 Y95.22500
X-68.26000 Y98.17900
X-69.78400 Y94.36900
X-73.45500 Y90.05100
X-74.72500 Y88.78100
X-73.45500 Y87.51100
X-78.03900 Y92.29700
X-78.42000 Y98.17900
X-67.87900 Y105.79900
X-67.87900 Y103.29900
X-62.87500 Y97.76500
X-59.88500 Y97.67500
X-49.72500 Y97.67500
X-49.72500 Y95.13500
X-46.72500 Y97.67500
X-46.72500 Y95.13500
X-46.72500 Y92.12500
X-46.72500 Y89.58500
X-49.71500 Y92.01500
X-49.71500 Y89.47500
X-49.72500 Y86.37500
X-49.72500 Y83.83500
X-46.62500 Y83.83500
X-46.62500 Y86.37500
X-31.55700 Y87.00300
X-31.55700 Y84.46300
X-31.55700 Y81.92300
X-31.55700 Y79.38300
X-31.55700 Y76.84300
X-31.55700 Y74.30300
X-31.55700 Y71.76300
X-31.55700 Y69.22300
X-31.55700 Y66.68300
X-31.55700 Y64.14300
X-31.55700 Y61.60300
X-31.55700 Y59.06300
X-31.55700 Y56.52300
X-31.55700 Y53.98300
X-31.55700 Y51.44300
X-35.02500 Y51.44300
X-37.52500 Y51.44300
X-31.81100 Y41.82000
X-27.99600 Y41.79600
X-25.45600 Y41.79600
X-22.15900 Y41.82000
X-22.15900 Y39.28000
X-18.34400 Y41.79600
X-15.80400 Y41.79600
X-12.50700 Y41.82000
X-12.50700 Y39.28000
X-8.69200 Y41.79600
X-6.15200 Y41.79600
X-3.53000 Y44.82500
X-6.07000 Y44.82500
X-6.15700 Y51.44300
X-6.15700 Y53.98300
X-6.15700 Y56.52300
X-6.15700 Y59.06300
X-6.15700 Y61.60300
X-6.15700 Y64.14300
X-6.15700 Y66.68300
X-6.15700 Y69.22300
X-6.15700 Y71.76300
X-6.15700 Y74.30300
X-6.15700 Y76.84300
X-6.15700 Y79.38300
X-6.15700 Y81.92300
X-6.15700 Y84.46300
X-6.15700 Y87.00300
X-9.71300 Y84.46300
X-16.52500 Y79.38300
X-21.85400 Y73.02500
X-28.50900 Y84.46300
X-14.53900 Y101.98900
X-40.57500 Y103.32500
G80

G00 Z30.00000 (Retract)
T5
M5      (Spindle stop.)
G04 P1.00000
(MSG, Change tool bit to drill size 1mm)
M6      (Tool change.)
M0      (Temporary machine stop.)
M3      (Spindle on clockwise.)
G0 Z1.80000
G04 P1.00000

G81 R1.80000 Z-1.95000 F200.00000 X-126.40100 Y3.79300
X-126.40100 Y16.49300
X-126.51000 Y23.51500
X-126.51000 Y36.21500
X-135.25900 Y45.28200
X-135.25900 Y50.28200
X-155.66100 Y73.00800
X-149.72500 Y91.52500
X-146.54300 Y84.46300
X-134.40200 Y68.81700
X-124.01300 Y83.19300
X-126.72500 Y91.52500
X-119.82500 Y89.45700
X-111.31300 Y83.19300
X-97.14000 Y83.24400
X-108.14900 Y93.86100
X-119.82500 Y93.25700
X-115.73300 Y104.27500
X-111.69400 Y104.27500
X-103.14900 Y93.86100
X-96.73300 Y101.88700
X-77.86100 Y101.78600
X-62.55500 Y103.38300
X-60.01500 Y103.38300
X-57.47500 Y103.38300
X-52.39500 Y103.38300
X-49.85500 Y103.38300
X-47.31500 Y103.38300
X-44.77500 Y103.38300
X-43.29200 Y95.63900
X-43.24100 Y91.60000
X-38.47500 Y86.89300
X-48.07500 Y79.52500
X-48.07500 Y74.52500
X-41.12500 Y50.82500
X-38.47500 Y81.89300
X-20.73700 Y99.42400
X-16.61100 Y104.17300
X-19.15100 Y104.17300
X-21.69100 Y104.17300
G80

G00 Z30.00000 (Retract)
T6
M5      (Spindle stop.)
G04 P1.00000
(MSG, Change tool bit to drill size 1.2mm)
M6      (Tool change.)
M0      (Temporary machine stop.)
M3      (Spindle on clockwise.)
G0 Z1.80000
G04 P1.00000

G81 R1.80000 Z-1.95000 F200.00000 X-56.83000 Y15.88300
X-66.35500 Y15.88300
X-76.00700 Y15.88300
X-85.65900 Y15.88300
X-95.31100 Y15.88300
X-104.96300 Y15.88300
X-114.48800 Y15.88300
X-130.97300 Y25.99200
X-130.97300 Y33.49200
X-97.08400 Y87.76500
X-97.08400 Y90.30500
X-97.08400 Y92.84500
X-127.95000 Y83.32000
X-143.19000 Y83.32000
X-132.67000 Y63.86500
X-132.67000 Y61.32500
X-132.67000 Y58.78500
X-137.23600 Y58.65300
X-137.23600 Y63.73300
X-151.19100 Y51.95100
X-155.71200 Y52.10300
X-155.71200 Y47.02300
X-151.19100 Y49.41100
X-151.19100 Y46.87100
X-156.31300 Y33.49200
X-151.27300 Y33.49200
X-146.23300 Y33.49200
X-146.23300 Y25.99200
X-151.27300 Y25.99200
X-156.31300 Y25.99200
X-156.21100 Y14.39100
X-156.21100 Y6.89100
X-151.17100 Y6.89100
X-146.13100 Y6.89100
X-151.17100 Y14.39100
X-146.13100 Y14.39100
X-130.87100 Y6.89100
X-130.87100 Y14.39100
X-114.48800 Y28.58300
X-104.96300 Y28.58300
X-95.31100 Y28.58300
X-85.65900 Y28.58300
X-76.00700 Y28.58300
X-66.35500 Y28.58300
X-56.83000 Y28.58300
X-47.17800 Y28.58300
X-37.65300 Y28.58300
X-27.92500 Y28.58300
X-18.34900 Y28.58300
X-8.69700 Y28.58300
X-8.69700 Y15.88300
X-18.34900 Y15.88300
X-27.92500 Y15.88300
X-37.65300 Y15.88300
X-47.17800 Y15.88300
G80

G00 Z30.00000 (Retract)
T8
M5      (Spindle stop.)
G04 P1.00000
(MSG, Change tool bit to drill size 1.5mm)
M6      (Tool change.)
M0      (Temporary machine stop.)
M3      (Spindle on clockwise.)
G0 Z1.80000
G04 P1.00000

G81 R1.80000 Z-1.95000 F200.00000 X-59.19900 Y10.22500
X-54.19900 Y10.22500
X-35.32300 Y10.14500
X-30.32300 Y10.14500
X-16.01900 Y10.14500
X-11.01900 Y10.14500
X-4.96700 Y101.98900
X-9.96700 Y101.98900
X-28.04500 Y101.88500
X-38.54200 Y91.55000
X-33.04500 Y101.88500
X-38.54200 Y106.79000
X-82.26300 Y101.10000
X-87.26300 Y101.10000
X-92.26300 Y101.10000
X-102.37600 Y101.22700
X-107.37600 Y101.22700
X-120.05400 Y101.10000
X-125.05400 Y101.10000
X-130.07700 Y101.10000
X-135.07700 Y101.10000
X-142.26900 Y101.10000
X-147.26900 Y101.10000
X-162.87500 Y101.33500
X-162.87500 Y96.33500
X-162.87500 Y91.33500
X-162.87500 Y86.33500
X-162.87500 Y81.33500
X-162.87500 Y76.33500
X-162.77500 Y68.14500
X-162.77500 Y63.14500
X-162.77500 Y58.14500
X-162.87500 Y51.36300
X-162.87500 Y46.36300
X-162.36700 Y34.67900
X-162.36700 Y29.67900
X-162.36700 Y24.67900
X-162.30300 Y15.48100
X-162.30300 Y10.48100
X-162.30300 Y5.48100
X-112.53900 Y10.14500
X-107.53900 Y10.14500
X-92.98100 Y10.14500
X-87.98100 Y10.14500
X-69.19900 Y10.22500
X-64.19900 Y10.22500
X-145.60300 Y68.66400
X-150.68300 Y68.66400
G80

G00 Z30.000 ( All done -- retract )

M5      (Spindle off.)
G04 P1.000000
M9      (Coolant off.)
M2      (Program end.)

