( pcb2gcode 2.5.0 )
( Software-independent Gcode )

G94 ( Millimeters per minute feed rate. )
G21 ( Units == Millimeters. )

G90 ( Absolute coordinates. )
G00 S20000 ( RPM spindle speed. )
G64 P0.05000 ( set maximum deviation from commanded toolpath )
G01 F250.00000 ( Feedrate. )


G00 Z30.00000 (Retract to tool change height)
T1
M5      (Spindle stop.)
G04 P1.00000 (Wait for spindle to stop)
(MSG, Change tool bit to cutter diameter 1.00000mm)
M6      (Tool change.)
M0      (Temporary machine stop.)
M3 ( Spindle on clockwise. )
G04 P1.00000 (Wait for spindle to get up to speed)
G04 P0 ( dwell for no time -- G64 should not smooth over this point )
G00 Z1.80000 ( retract )

G00 X-0.52496 Y1.02502 ( rapid move to begin. )
G01 Z-0.47500 F60.00000 ( plunge. )
G04 P0 ( dwell for no time -- G64 should not smooth over this point )
G01 F250.00000
G01 X-0.52496 Y55.02502
G01 X-0.52496 Y57.02502
G01 X-0.52496 Y111.02502
G01 X-0.53458 Y111.12259
G01 X-0.56303 Y111.21639
G01 X-0.60923 Y111.30282
G01 X-0.67141 Y111.37859
G01 X-0.74718 Y111.44077
G01 X-0.83362 Y111.48697
G01 X-0.92742 Y111.51542
G01 X-1.02498 Y111.52505
G01 X-85.02499 Y111.52505
G01 X-87.02499 Y111.52505
G01 X-171.02500 Y111.52505
G01 X-171.12253 Y111.51542
G01 X-171.21631 Y111.48697
G01 X-171.30277 Y111.44077
G01 X-171.37854 Y111.37859
G01 X-171.44069 Y111.30282
G01 X-171.48692 Y111.21639
G01 X-171.51537 Y111.12259
G01 X-171.52500 Y111.02502
G01 X-171.52500 Y1.02502
G01 X-171.51537 Y0.92748
G01 X-171.48692 Y0.83368
G01 X-171.44069 Y0.74724
G01 X-171.37854 Y0.67147
G01 X-171.30277 Y0.60929
G01 X-171.21631 Y0.56309
G01 X-171.12253 Y0.53464
G01 X-171.02500 Y0.52502
G01 X-87.02499 Y0.52502
G01 X-85.02499 Y0.52502
G01 X-1.02498 Y0.52502
G01 X-0.92742 Y0.53464
G01 X-0.83362 Y0.56309
G01 X-0.74718 Y0.60929
G01 X-0.67141 Y0.67147
G01 X-0.60923 Y0.74724
G01 X-0.56303 Y0.83368
G01 X-0.53458 Y0.92748
G01 X-0.52496 Y1.02502
G01 Z-0.95000 F60.00000 ( plunge. )
G04 P0 ( dwell for no time -- G64 should not smooth over this point )
G01 F250.00000
G01 X-0.52496 Y55.02502
G00 Z-0.60000
G01 X-0.52496 Y57.02502
G01 Z-0.95000 F60.00000
G01 F250.00000
G01 X-0.52496 Y111.02502
G01 X-0.53458 Y111.12259
G01 X-0.56303 Y111.21639
G01 X-0.60923 Y111.30282
G01 X-0.67141 Y111.37859
G01 X-0.74718 Y111.44077
G01 X-0.83362 Y111.48697
G01 X-0.92742 Y111.51542
G01 X-1.02498 Y111.52505
G01 X-85.02499 Y111.52505
G00 Z-0.60000
G01 X-87.02499 Y111.52505
G01 Z-0.95000 F60.00000
G01 F250.00000
G01 X-171.02500 Y111.52505
G01 X-171.12253 Y111.51542
G01 X-171.21631 Y111.48697
G01 X-171.30277 Y111.44077
G01 X-171.37854 Y111.37859
G01 X-171.44069 Y111.30282
G01 X-171.48692 Y111.21639
G01 X-171.51537 Y111.12259
G01 X-171.52500 Y111.02502
G01 X-171.52500 Y1.02502
G01 X-171.51537 Y0.92748
G01 X-171.48692 Y0.83368
G01 X-171.44069 Y0.74724
G01 X-171.37854 Y0.67147
G01 X-171.30277 Y0.60929
G01 X-171.21631 Y0.56309
G01 X-171.12253 Y0.53464
G01 X-171.02500 Y0.52502
G01 X-87.02499 Y0.52502
G00 Z-0.60000
G01 X-85.02499 Y0.52502
G01 Z-0.95000 F60.00000
G01 F250.00000
G01 X-1.02498 Y0.52502
G01 X-0.92742 Y0.53464
G01 X-0.83362 Y0.56309
G01 X-0.74718 Y0.60929
G01 X-0.67141 Y0.67147
G01 X-0.60923 Y0.74724
G01 X-0.56303 Y0.83368
G01 X-0.53458 Y0.92748
G01 X-0.52496 Y1.02502
G01 Z-1.42500 F60.00000 ( plunge. )
G04 P0 ( dwell for no time -- G64 should not smooth over this point )
G01 F250.00000
G01 X-0.52496 Y55.02502
G00 Z-0.60000
G01 X-0.52496 Y57.02502
G01 Z-1.42500 F60.00000
G01 F250.00000
G01 X-0.52496 Y111.02502
G01 X-0.53458 Y111.12259
G01 X-0.56303 Y111.21639
G01 X-0.60923 Y111.30282
G01 X-0.67141 Y111.37859
G01 X-0.74718 Y111.44077
G01 X-0.83362 Y111.48697
G01 X-0.92742 Y111.51542
G01 X-1.02498 Y111.52505
G01 X-85.02499 Y111.52505
G00 Z-0.60000
G01 X-87.02499 Y111.52505
G01 Z-1.42500 F60.00000
G01 F250.00000
G01 X-171.02500 Y111.52505
G01 X-171.12253 Y111.51542
G01 X-171.21631 Y111.48697
G01 X-171.30277 Y111.44077
G01 X-171.37854 Y111.37859
G01 X-171.44069 Y111.30282
G01 X-171.48692 Y111.21639
G01 X-171.51537 Y111.12259
G01 X-171.52500 Y111.02502
G01 X-171.52500 Y1.02502
G01 X-171.51537 Y0.92748
G01 X-171.48692 Y0.83368
G01 X-171.44069 Y0.74724
G01 X-171.37854 Y0.67147
G01 X-171.30277 Y0.60929
G01 X-171.21631 Y0.56309
G01 X-171.12253 Y0.53464
G01 X-171.02500 Y0.52502
G01 X-87.02499 Y0.52502
G00 Z-0.60000
G01 X-85.02499 Y0.52502
G01 Z-1.42500 F60.00000
G01 F250.00000
G01 X-1.02498 Y0.52502
G01 X-0.92742 Y0.53464
G01 X-0.83362 Y0.56309
G01 X-0.74718 Y0.60929
G01 X-0.67141 Y0.67147
G01 X-0.60923 Y0.74724
G01 X-0.56303 Y0.83368
G01 X-0.53458 Y0.92748
G01 X-0.52496 Y1.02502
G01 Z-1.90000 F60.00000 ( plunge. )
G04 P0 ( dwell for no time -- G64 should not smooth over this point )
G01 F250.00000
G01 X-0.52496 Y55.02502
G00 Z-0.60000
G01 X-0.52496 Y57.02502
G01 Z-1.90000 F60.00000
G01 F250.00000
G01 X-0.52496 Y111.02502
G01 X-0.53458 Y111.12259
G01 X-0.56303 Y111.21639
G01 X-0.60923 Y111.30282
G01 X-0.67141 Y111.37859
G01 X-0.74718 Y111.44077
G01 X-0.83362 Y111.48697
G01 X-0.92742 Y111.51542
G01 X-1.02498 Y111.52505
G01 X-85.02499 Y111.52505
G00 Z-0.60000
G01 X-87.02499 Y111.52505
G01 Z-1.90000 F60.00000
G01 F250.00000
G01 X-171.02500 Y111.52505
G01 X-171.12253 Y111.51542
G01 X-171.21631 Y111.48697
G01 X-171.30277 Y111.44077
G01 X-171.37854 Y111.37859
G01 X-171.44069 Y111.30282
G01 X-171.48692 Y111.21639
G01 X-171.51537 Y111.12259
G01 X-171.52500 Y111.02502
G01 X-171.52500 Y1.02502
G01 X-171.51537 Y0.92748
G01 X-171.48692 Y0.83368
G01 X-171.44069 Y0.74724
G01 X-171.37854 Y0.67147
G01 X-171.30277 Y0.60929
G01 X-171.21631 Y0.56309
G01 X-171.12253 Y0.53464
G01 X-171.02500 Y0.52502
G01 X-87.02499 Y0.52502
G00 Z-0.60000
G01 X-85.02499 Y0.52502
G01 Z-1.90000 F60.00000
G01 F250.00000
G01 X-1.02498 Y0.52502
G01 X-0.92742 Y0.53464
G01 X-0.83362 Y0.56309
G01 X-0.74718 Y0.60929
G01 X-0.67141 Y0.67147
G01 X-0.60923 Y0.74724
G01 X-0.56303 Y0.83368
G01 X-0.53458 Y0.92748
G01 X-0.52496 Y1.02502

G04 P0 ( dwell for no time -- G64 should not smooth over this point )
G00 Z30.000000 ( retract )

M5 ( Spindle off. )
G04 P1.000000
M9 ( Coolant off. )
M2 ( Program end. )

