( pcb2gcode 2.5.0 )
( Software-independent Gcode )

G94 ( Millimeters per minute feed rate. )
G21 ( Units == Millimeters. )

G90 ( Absolute coordinates. )
G00 S20000 ( RPM spindle speed. )
G64 P0.05000 ( set maximum deviation from commanded toolpath )
G01 F400.00000 ( Feedrate. )


G00 Z30.00000 (Retract to tool change height)
T1
M5      (Spindle stop.)
G04 P1.00000 (Wait for spindle to stop)
(MSG, Change tool bit to mill diameter -0.29800mm)
M6      (Tool change.)
M0      (Temporary machine stop.)
M3 ( Spindle on clockwise. )
G04 P1.00000 (Wait for spindle to get up to speed)
G04 P0 ( dwell for no time -- G64 should not smooth over this point )
G00 Z1.80000 ( retract )

G00 X169.02000 Y35.09645 ( rapid move to begin. )
G01 F200.00000
( Mill infeed pass 1/1 )
G01 Z-0.20000
G04 P0 ( dwell for no time -- G64 should not smooth over this point )
G01 F400.00000
G01 X169.02000 Y35.09645
G01 X169.02012 Y35.09622
G01 X169.02749 Y35.09546
G01 X170.31296 Y35.09546
G01 X170.32035 Y35.09620
G01 X170.32035 Y35.09673
G01 X170.31296 Y35.09746
G01 X169.69645 Y35.09746
G01 X169.66782 Y35.10023
G01 X169.64026 Y35.10844
G01 X169.61481 Y35.12180
G01 X169.59239 Y35.13978
G01 X169.57387 Y35.16175
G01 X169.55987 Y35.18687
G01 X169.55098 Y35.21420
G01 X169.54748 Y35.24273
G01 X169.54954 Y35.27140
G01 X169.55705 Y35.29914
G01 X169.56973 Y35.32492
G01 X169.58715 Y35.34778
G01 X169.60867 Y35.36688
G01 X169.63343 Y35.38149
G01 X169.94291 Y35.52591
G01 X169.94905 Y35.52952
G01 X169.94918 Y35.52977
G01 X169.94905 Y35.53005
G01 X169.94291 Y35.53366
G01 X169.63343 Y35.67808
G01 X169.60867 Y35.69269
G01 X169.58715 Y35.71179
G01 X169.56973 Y35.73465
G01 X169.55705 Y35.76043
G01 X169.54954 Y35.78817
G01 X169.54748 Y35.81684
G01 X169.55098 Y35.84537
G01 X169.55987 Y35.87270
G01 X169.57387 Y35.89782
G01 X169.59239 Y35.91979
G01 X169.61481 Y35.93777
G01 X169.64026 Y35.95113
G01 X169.66782 Y35.95934
G01 X169.69645 Y35.96211
G01 X170.31296 Y35.96211
G01 X170.32035 Y35.96284
G01 X170.32035 Y35.96338
G01 X170.31296 Y35.96411
G01 X169.02749 Y35.96411
G01 X169.02012 Y35.96335
G01 X169.02000 Y35.96312
G01 X169.02010 Y35.96287
G01 X169.02640 Y35.95916
G01 X169.65716 Y35.66480
G01 X169.68141 Y35.65055
G01 X169.70255 Y35.63201
G01 X169.71982 Y35.60983
G01 X169.73262 Y35.58479
G01 X169.74049 Y35.55779
G01 X169.74316 Y35.52977
G01 X169.74049 Y35.50178
G01 X169.73262 Y35.47478
G01 X169.71982 Y35.44974
G01 X169.70255 Y35.42756
G01 X169.68141 Y35.40902
G01 X169.65716 Y35.39477
G01 X169.02640 Y35.10041
G01 X169.02010 Y35.09670
G01 X169.02000 Y35.09645
G04 P0 ( dwell for no time -- G64 should not smooth over this point )
G00 Z1.80000 ( retract )

G00 X169.02129 Y34.01758 ( rapid move to begin. )
G01 F200.00000
( Mill infeed pass 1/1 )
G01 Z-0.20000
G04 P0 ( dwell for no time -- G64 should not smooth over this point )
G01 F400.00000
G01 X169.02129 Y34.01758
G01 X169.02528 Y33.98334
G01 X169.03701 Y33.95093
G01 X169.07219 Y33.88058
G01 X169.08459 Y33.86010
G01 X169.10011 Y33.84187
G01 X169.17730 Y33.76465
G01 X169.19790 Y33.74746
G01 X169.22124 Y33.73425
G01 X169.24656 Y33.72543
G01 X169.43595 Y33.67814
G01 X169.47207 Y33.67367
G01 X169.86848 Y33.67367
G01 X169.90460 Y33.67814
G01 X170.09398 Y33.72543
G01 X170.11931 Y33.73425
G01 X170.14265 Y33.74746
G01 X170.16325 Y33.76465
G01 X170.24047 Y33.84187
G01 X170.25599 Y33.86010
G01 X170.26838 Y33.88058
G01 X170.30356 Y33.95093
G01 X170.31530 Y33.98334
G01 X170.31928 Y34.01758
G01 X170.31928 Y34.19439
G01 X170.31530 Y34.22866
G01 X170.30356 Y34.26104
G01 X170.26838 Y34.33138
G01 X170.25599 Y34.35187
G01 X170.24047 Y34.37011
G01 X170.16320 Y34.44733
G01 X170.14265 Y34.46450
G01 X170.11931 Y34.47771
G01 X170.09398 Y34.48652
G01 X169.90460 Y34.53386
G01 X169.86848 Y34.53831
G01 X169.47207 Y34.53831
G01 X169.43595 Y34.53386
G01 X169.24651 Y34.48652
G01 X169.22122 Y34.47771
G01 X169.19790 Y34.46450
G01 X169.17732 Y34.44733
G01 X169.10011 Y34.37011
G01 X169.08459 Y34.35187
G01 X169.07219 Y34.33140
G01 X169.03701 Y34.26104
G01 X169.02528 Y34.22866
G01 X169.02129 Y34.19439
G01 X169.02129 Y34.01758
G04 P0 ( dwell for no time -- G64 should not smooth over this point )
G00 Z1.80000 ( retract )

G00 X169.01929 Y33.99081 ( rapid move to begin. )
G01 F200.00000
( Mill infeed pass 1/1 )
G01 Z-0.20000
G04 P0 ( dwell for no time -- G64 should not smooth over this point )
G01 F400.00000
G01 X169.01929 Y33.99081
G01 X169.02030 Y33.98220
G01 X169.02325 Y33.97400
G01 X169.07862 Y33.86328
G01 X169.08177 Y33.85810
G01 X169.08573 Y33.85342
G01 X169.20054 Y33.73859
G01 X169.20577 Y33.73422
G01 X169.21227 Y33.73194
G01 X169.44451 Y33.67390
G01 X169.46272 Y33.67169
G01 X169.87781 Y33.67169
G01 X169.89604 Y33.67390
G01 X170.12830 Y33.73194
G01 X170.13473 Y33.73417
G01 X170.13998 Y33.73859
G01 X170.25484 Y33.85342
G01 X170.25881 Y33.85810
G01 X170.26196 Y33.86328
G01 X170.31733 Y33.97400
G01 X170.32025 Y33.98220
G01 X170.32129 Y33.99081
G01 X170.32129 Y34.22116
G01 X170.32025 Y34.22980
G01 X170.31733 Y34.23803
G01 X170.26196 Y34.34870
G01 X170.25881 Y34.35391
G01 X170.25484 Y34.35858
G01 X170.13998 Y34.47336
G01 X170.13473 Y34.47778
G01 X170.12830 Y34.48002
G01 X169.89604 Y34.53806
G01 X169.87781 Y34.54032
G01 X169.46272 Y34.54032
G01 X169.44451 Y34.53806
G01 X169.21225 Y34.48002
G01 X169.20577 Y34.47773
G01 X169.20054 Y34.47336
G01 X169.08573 Y34.35858
G01 X169.08177 Y34.35391
G01 X169.07862 Y34.34870
G01 X169.02325 Y34.23803
G01 X169.02030 Y34.22980
G01 X169.01929 Y34.22116
G01 X169.01929 Y33.99081
G04 P0 ( dwell for no time -- G64 should not smooth over this point )
G00 Z1.80000 ( retract )

G00 X169.01929 Y32.81197 ( rapid move to begin. )
G01 F200.00000
( Mill infeed pass 1/1 )
G01 Z-0.20000
G04 P0 ( dwell for no time -- G64 should not smooth over this point )
G01 F400.00000
G01 X169.01929 Y32.81197
G01 X169.01977 Y32.80588
G01 X169.02124 Y32.79998
G01 X169.07852 Y32.62815
G01 X169.08220 Y32.62028
G01 X169.08759 Y32.61345
G01 X169.20105 Y32.50001
G01 X169.20570 Y32.49607
G01 X169.21090 Y32.49290
G01 X169.32208 Y32.43732
G01 X169.33747 Y32.43158
G01 X169.56828 Y32.37390
G01 X169.58654 Y32.37164
G01 X169.75398 Y32.37164
G01 X169.77222 Y32.37390
G01 X170.00308 Y32.43158
G01 X170.01850 Y32.43732
G01 X170.12962 Y32.49290
G01 X170.13485 Y32.49607
G01 X170.13950 Y32.49998
G01 X170.25296 Y32.61345
G01 X170.25837 Y32.62028
G01 X170.26208 Y32.62815
G01 X170.31933 Y32.79998
G01 X170.32081 Y32.80588
G01 X170.32129 Y32.81197
G01 X170.32129 Y32.92378
G01 X170.32081 Y32.92991
G01 X170.31933 Y32.93580
G01 X170.26208 Y33.10763
G01 X170.25837 Y33.11553
G01 X170.25296 Y33.12234
G01 X170.20234 Y33.17298
G01 X170.19658 Y33.17768
G01 X170.19630 Y33.17766
G01 X170.19617 Y33.17740
G01 X170.20092 Y33.17154
G01 X170.23259 Y33.13989
G01 X170.25403 Y33.11281
G01 X170.26864 Y33.08162
G01 X170.31164 Y32.95256
G01 X170.31735 Y32.92932
G01 X170.31928 Y32.90545
G01 X170.31928 Y32.83034
G01 X170.31735 Y32.80644
G01 X170.31164 Y32.78319
G01 X170.26864 Y32.65419
G01 X170.25403 Y32.62297
G01 X170.23264 Y32.59592
G01 X170.15106 Y32.51436
G01 X170.13282 Y32.49887
G01 X170.11237 Y32.48647
G01 X170.02502 Y32.44281
G01 X169.99452 Y32.43151
G01 X169.78078 Y32.37809
G01 X169.74466 Y32.37365
G01 X169.59589 Y32.37365
G01 X169.55972 Y32.37809
G01 X169.34603 Y32.43151
G01 X169.31553 Y32.44281
G01 X169.22820 Y32.48647
G01 X169.20773 Y32.49887
G01 X169.18949 Y32.51439
G01 X169.10793 Y32.59597
G01 X169.08654 Y32.62297
G01 X169.07194 Y32.65419
G01 X169.02894 Y32.78319
G01 X169.02322 Y32.80644
G01 X169.02129 Y32.83034
G01 X169.02129 Y32.90545
G01 X169.02322 Y32.92932
G01 X169.02894 Y32.95256
G01 X169.07194 Y33.08162
G01 X169.08654 Y33.11281
G01 X169.10793 Y33.13989
G01 X169.13963 Y33.17154
G01 X169.14433 Y33.17725
G01 X169.14420 Y33.17768
G01 X169.14392 Y33.17766
G01 X169.13821 Y33.17298
G01 X169.08759 Y33.12234
G01 X169.08220 Y33.11553
G01 X169.07852 Y33.10763
G01 X169.02124 Y32.93580
G01 X169.01977 Y32.92991
G01 X169.01929 Y32.92378
G01 X169.01929 Y32.81197
G04 P0 ( dwell for no time -- G64 should not smooth over this point )
G00 Z1.80000 ( retract )

G00 X166.92709 Y31.28932 ( rapid move to begin. )
G01 F200.00000
( Mill infeed pass 1/1 )
G01 Z-0.20000
G04 P0 ( dwell for no time -- G64 should not smooth over this point )
G01 F400.00000
G01 X166.92709 Y31.28932
G01 X166.93290 Y31.28447
G01 X167.10014 Y31.17296
G01 X167.12290 Y31.15432
G01 X167.21898 Y31.05820
G01 X167.23448 Y31.03994
G01 X167.24687 Y31.01947
G01 X167.29460 Y30.92399
G01 X167.29856 Y30.91772
G01 X167.29902 Y30.91777
G01 X167.29640 Y30.92488
G01 X167.24045 Y31.03677
G01 X167.23730 Y31.04197
G01 X167.23661 Y31.04279
G01 X167.22046 Y31.06595
G01 X167.20893 Y31.09168
G01 X167.20247 Y31.11914
G01 X167.20133 Y31.14733
G01 X167.20550 Y31.17525
G01 X167.21484 Y31.20184
G01 X167.22907 Y31.22623
G01 X167.24761 Y31.24751
G01 X167.26983 Y31.26486
G01 X167.29493 Y31.27774
G01 X167.32203 Y31.28566
G01 X167.35010 Y31.28835
G01 X168.07735 Y31.28835
G01 X168.10641 Y31.28546
G01 X168.13437 Y31.27703
G01 X168.16013 Y31.26323
G01 X168.18271 Y31.24469
G01 X168.20125 Y31.22211
G01 X168.21502 Y31.19636
G01 X168.22348 Y31.16842
G01 X168.22635 Y31.13936
G01 X168.22635 Y30.92521
G01 X168.22708 Y30.91782
G01 X168.22724 Y30.91762
G01 X168.22752 Y30.91764
G01 X168.22835 Y30.92521
G01 X168.22835 Y31.65343
G01 X168.22752 Y31.66100
G01 X168.22708 Y31.66079
G01 X168.22635 Y31.65343
G01 X168.22635 Y31.43933
G01 X168.22348 Y31.41027
G01 X168.21502 Y31.38231
G01 X168.20125 Y31.35655
G01 X168.18271 Y31.33400
G01 X168.16013 Y31.31546
G01 X168.13437 Y31.30166
G01 X168.10641 Y31.29321
G01 X168.07735 Y31.29034
G01 X166.93468 Y31.29034
G01 X166.92719 Y31.28957
G01 X166.92709 Y31.28932
G04 P0 ( dwell for no time -- G64 should not smooth over this point )
G00 Z1.80000 ( retract )

G00 X166.92836 Y29.82981 ( rapid move to begin. )
G01 F200.00000
( Mill infeed pass 1/1 )
G01 Z-0.20000
G04 P0 ( dwell for no time -- G64 should not smooth over this point )
G01 F400.00000
G01 X166.92836 Y29.82981
G01 X166.93123 Y29.80075
G01 X166.93969 Y29.77276
G01 X166.95345 Y29.74701
G01 X166.97199 Y29.72443
G01 X166.99458 Y29.70588
G01 X167.02033 Y29.69212
G01 X167.04830 Y29.68366
G01 X167.07735 Y29.68081
G01 X168.07735 Y29.68081
G01 X168.10641 Y29.68366
G01 X168.13437 Y29.69212
G01 X168.16013 Y29.70588
G01 X168.18271 Y29.72443
G01 X168.20125 Y29.74701
G01 X168.21502 Y29.77276
G01 X168.22348 Y29.80075
G01 X168.22635 Y29.82981
G01 X168.22635 Y29.96496
G01 X168.22442 Y29.98884
G01 X168.21870 Y30.01208
G01 X168.17570 Y30.14114
G01 X168.16110 Y30.17233
G01 X168.13968 Y30.19941
G01 X168.05812 Y30.28091
G01 X168.03989 Y30.29643
G01 X168.01941 Y30.30883
G01 X167.93211 Y30.35247
G01 X167.90161 Y30.36377
G01 X167.68787 Y30.41718
G01 X167.65175 Y30.42166
G01 X167.50296 Y30.42166
G01 X167.46684 Y30.41718
G01 X167.25310 Y30.36377
G01 X167.22259 Y30.35247
G01 X167.13529 Y30.30883
G01 X167.11482 Y30.29643
G01 X167.09658 Y30.28091
G01 X167.01502 Y30.19941
G01 X166.99361 Y30.17233
G01 X166.97900 Y30.14114
G01 X166.93600 Y30.01208
G01 X166.93029 Y29.98884
G01 X166.92836 Y29.96496
G01 X166.92836 Y29.82981
G04 P0 ( dwell for no time -- G64 should not smooth over this point )
G00 Z1.80000 ( retract )

G00 X166.92635 Y29.68714 ( rapid move to begin. )
G01 F200.00000
( Mill infeed pass 1/1 )
G01 Z-0.20000
G04 P0 ( dwell for no time -- G64 should not smooth over this point )
G01 F400.00000
G01 X166.92635 Y29.68714
G01 X166.92709 Y29.67972
G01 X166.93468 Y29.67878
G01 X168.22002 Y29.67878
G01 X168.22742 Y29.67954
G01 X168.22762 Y29.67970
G01 X168.22835 Y29.68714
G01 X168.22835 Y29.98330
G01 X168.22787 Y29.98942
G01 X168.22640 Y29.99532
G01 X168.16915 Y30.16715
G01 X168.16544 Y30.17502
G01 X168.16005 Y30.18185
G01 X168.04657 Y30.29529
G01 X168.04192 Y30.29925
G01 X168.03671 Y30.30240
G01 X167.92556 Y30.35798
G01 X167.91017 Y30.36369
G01 X167.67931 Y30.42138
G01 X167.66107 Y30.42364
G01 X167.49363 Y30.42364
G01 X167.47540 Y30.42138
G01 X167.24454 Y30.36369
G01 X167.22914 Y30.35798
G01 X167.11799 Y30.30240
G01 X167.11279 Y30.29925
G01 X167.10814 Y30.29529
G01 X166.99465 Y30.18185
G01 X166.98927 Y30.17502
G01 X166.98556 Y30.16715
G01 X166.92831 Y29.99532
G01 X166.92683 Y29.98942
G01 X166.92635 Y29.98330
G01 X166.92635 Y29.68714
G04 P0 ( dwell for no time -- G64 should not smooth over this point )
G00 Z1.80000 ( retract )

G00 X166.92635 Y28.57284 ( rapid move to begin. )
G01 F200.00000
( Mill infeed pass 1/1 )
G01 Z-0.20000
G04 P0 ( dwell for no time -- G64 should not smooth over this point )
G01 F400.00000
G01 X166.92635 Y28.57284
G01 X166.92709 Y28.56545
G01 X166.92724 Y28.56525
G01 X166.93468 Y28.56451
G01 X168.22002 Y28.56451
G01 X168.22742 Y28.56525
G01 X168.22762 Y28.56540
G01 X168.22742 Y28.56578
G01 X168.22002 Y28.56652
G01 X167.69640 Y28.56652
G01 X167.66735 Y28.56939
G01 X167.63938 Y28.57784
G01 X167.61362 Y28.59161
G01 X167.59104 Y28.61015
G01 X167.57250 Y28.63273
G01 X167.55873 Y28.65849
G01 X167.55028 Y28.68645
G01 X167.54741 Y28.71551
G01 X167.54741 Y28.99151
G01 X167.54657 Y28.99908
G01 X167.54614 Y28.99890
G01 X167.54540 Y28.99151
G01 X167.54540 Y28.71551
G01 X167.54253 Y28.68645
G01 X167.53407 Y28.65849
G01 X167.52030 Y28.63273
G01 X167.50176 Y28.61015
G01 X167.47918 Y28.59161
G01 X167.45343 Y28.57784
G01 X167.42546 Y28.56939
G01 X167.39640 Y28.56652
G01 X167.07735 Y28.56652
G01 X167.04830 Y28.56939
G01 X167.02033 Y28.57784
G01 X166.99458 Y28.59161
G01 X166.97199 Y28.61015
G01 X166.95345 Y28.63273
G01 X166.93969 Y28.65849
G01 X166.93123 Y28.68645
G01 X166.92836 Y28.71551
G01 X166.92836 Y29.17723
G01 X166.92752 Y29.18480
G01 X166.92724 Y29.18483
G01 X166.92709 Y29.18462
G01 X166.92635 Y29.17723
G01 X166.92635 Y28.57284
G04 P0 ( dwell for no time -- G64 should not smooth over this point )
G00 Z1.80000 ( retract )

G00 X169.02129 Y29.37472 ( rapid move to begin. )
G01 F200.00000
( Mill infeed pass 1/1 )
G01 Z-0.20000
G04 P0 ( dwell for no time -- G64 should not smooth over this point )
G01 F400.00000
G01 X169.02129 Y29.37472
G01 X169.02528 Y29.34050
G01 X169.03701 Y29.30809
G01 X169.07219 Y29.23774
G01 X169.08459 Y29.21724
G01 X169.10011 Y29.19900
G01 X169.17732 Y29.12178
G01 X169.19790 Y29.10461
G01 X169.22122 Y29.09141
G01 X169.24651 Y29.08259
G01 X169.43595 Y29.03525
G01 X169.47207 Y29.03080
G01 X169.86848 Y29.03080
G01 X169.90460 Y29.03525
G01 X170.09398 Y29.08259
G01 X170.11931 Y29.09141
G01 X170.14265 Y29.10461
G01 X170.16320 Y29.12178
G01 X170.24047 Y29.19898
G01 X170.25599 Y29.21724
G01 X170.26838 Y29.23774
G01 X170.30356 Y29.30809
G01 X170.31530 Y29.34050
G01 X170.31928 Y29.37472
G01 X170.31928 Y29.55155
G01 X170.31530 Y29.58577
G01 X170.30356 Y29.61815
G01 X170.26838 Y29.68851
G01 X170.25599 Y29.70901
G01 X170.24047 Y29.72730
G01 X170.16320 Y29.80449
G01 X170.14265 Y29.82163
G01 X170.11931 Y29.83484
G01 X170.09404 Y29.84368
G01 X169.90460 Y29.89102
G01 X169.86846 Y29.89549
G01 X169.47209 Y29.89549
G01 X169.43595 Y29.89102
G01 X169.24651 Y29.84368
G01 X169.22122 Y29.83484
G01 X169.19790 Y29.82163
G01 X169.17732 Y29.80446
G01 X169.10011 Y29.72724
G01 X169.08459 Y29.70901
G01 X169.07219 Y29.68851
G01 X169.03701 Y29.61815
G01 X169.02528 Y29.58577
G01 X169.02129 Y29.55155
G01 X169.02129 Y29.37472
G04 P0 ( dwell for no time -- G64 should not smooth over this point )
G00 Z1.80000 ( retract )

G00 X169.01929 Y29.34797 ( rapid move to begin. )
G01 F200.00000
( Mill infeed pass 1/1 )
G01 Z-0.20000
G04 P0 ( dwell for no time -- G64 should not smooth over this point )
G01 F400.00000
G01 X169.01929 Y29.34797
G01 X169.02030 Y29.33934
G01 X169.02325 Y29.33116
G01 X169.07862 Y29.22041
G01 X169.08177 Y29.21521
G01 X169.08573 Y29.21056
G01 X169.20054 Y29.09575
G01 X169.20577 Y29.09138
G01 X169.21225 Y29.08910
G01 X169.44451 Y29.03106
G01 X169.46272 Y29.02880
G01 X169.87781 Y29.02880
G01 X169.89604 Y29.03106
G01 X170.12830 Y29.08910
G01 X170.13473 Y29.09133
G01 X170.13998 Y29.09575
G01 X170.25484 Y29.21056
G01 X170.25881 Y29.21521
G01 X170.26196 Y29.22041
G01 X170.31733 Y29.33116
G01 X170.32025 Y29.33934
G01 X170.32129 Y29.34797
G01 X170.32129 Y29.57827
G01 X170.32025 Y29.58691
G01 X170.31733 Y29.59511
G01 X170.26196 Y29.70586
G01 X170.25881 Y29.71104
G01 X170.25484 Y29.71569
G01 X170.13998 Y29.83050
G01 X170.13473 Y29.83494
G01 X170.12830 Y29.83715
G01 X169.89604 Y29.89521
G01 X169.87781 Y29.89748
G01 X169.46272 Y29.89748
G01 X169.44451 Y29.89521
G01 X169.21225 Y29.83715
G01 X169.20577 Y29.83486
G01 X169.20054 Y29.83050
G01 X169.08573 Y29.71569
G01 X169.08177 Y29.71104
G01 X169.07862 Y29.70586
G01 X169.02325 Y29.59511
G01 X169.02030 Y29.58691
G01 X169.01929 Y29.57827
G01 X169.01929 Y29.34797
G04 P0 ( dwell for no time -- G64 should not smooth over this point )
G00 Z1.80000 ( retract )

G00 X169.02002 Y28.47264 ( rapid move to begin. )
G01 F200.00000
( Mill infeed pass 1/1 )
G01 Z-0.20000
G04 P0 ( dwell for no time -- G64 should not smooth over this point )
G01 F400.00000
G01 X169.02002 Y28.47264
G01 X169.02012 Y28.47289
G01 X169.02762 Y28.47365
G01 X170.31276 Y28.47365
G01 X170.32032 Y28.47289
G01 X170.32043 Y28.47246
G01 X170.31425 Y28.46804
G01 X169.51118 Y28.00914
G01 X169.48677 Y27.99171
G01 X169.46633 Y27.96974
G01 X169.45070 Y27.94411
G01 X169.44054 Y27.91587
G01 X169.43625 Y27.88618
G01 X169.43798 Y27.85623
G01 X169.44565 Y27.82722
G01 X169.45904 Y27.80035
G01 X169.47748 Y27.77670
G01 X169.50034 Y27.75725
G01 X169.52662 Y27.74274
G01 X169.55525 Y27.73380
G01 X169.58510 Y27.73078
G01 X170.31296 Y27.73078
G01 X170.32035 Y27.73004
G01 X170.32035 Y27.72951
G01 X170.31296 Y27.72877
G01 X169.02782 Y27.72877
G01 X169.02020 Y27.72956
G01 X169.02005 Y27.72979
G01 X169.02632 Y27.73439
G01 X169.82939 Y28.19329
G01 X169.85380 Y28.21071
G01 X169.87425 Y28.23268
G01 X169.88985 Y28.25831
G01 X169.90003 Y28.28656
G01 X169.90432 Y28.31625
G01 X169.90257 Y28.34620
G01 X169.89490 Y28.37520
G01 X169.88154 Y28.40208
G01 X169.86307 Y28.42572
G01 X169.84024 Y28.44518
G01 X169.81395 Y28.45968
G01 X169.78532 Y28.46862
G01 X169.75545 Y28.47165
G01 X169.02762 Y28.47165
G01 X169.02002 Y28.47264
G04 P0 ( dwell for no time -- G64 should not smooth over this point )
G00 Z1.80000 ( retract )

G00 X166.92709 Y27.26553 ( rapid move to begin. )
G01 F200.00000
( Mill infeed pass 1/1 )
G01 Z-0.20000
G04 P0 ( dwell for no time -- G64 should not smooth over this point )
G01 F400.00000
G01 X166.92709 Y27.26553
G01 X166.92721 Y27.26576
G01 X166.93397 Y27.26878
G01 X167.80011 Y27.55748
G01 X167.82625 Y27.56908
G01 X167.84969 Y27.58547
G01 X167.86955 Y27.60601
G01 X167.88512 Y27.62999
G01 X167.89584 Y27.65648
G01 X167.90130 Y27.68455
G01 X167.90130 Y27.71313
G01 X167.89584 Y27.74119
G01 X167.88512 Y27.76769
G01 X167.86955 Y27.79166
G01 X167.84969 Y27.81221
G01 X167.82625 Y27.82859
G01 X167.80011 Y27.84020
G01 X166.93397 Y28.12890
G01 X166.92721 Y28.13192
G01 X166.92709 Y28.13215
G01 X166.93461 Y28.13080
G01 X168.22086 Y27.70205
G01 X168.22749 Y27.69911
G01 X168.22767 Y27.69880
G01 X168.22749 Y27.69857
G01 X168.22086 Y27.69563
G01 X166.93461 Y27.26687
G01 X166.92709 Y27.26553
G04 P0 ( dwell for no time -- G64 should not smooth over this point )
G00 Z1.80000 ( retract )

G00 X169.01929 Y24.82626 ( rapid move to begin. )
G01 F200.00000
( Mill infeed pass 1/1 )
G01 Z-0.20000
G04 P0 ( dwell for no time -- G64 should not smooth over this point )
G01 F400.00000
G01 X169.01929 Y24.82626
G01 X169.01929 Y24.93807
G01 X169.01977 Y24.94417
G01 X169.02124 Y24.95009
G01 X169.07852 Y25.12189
G01 X169.08220 Y25.12977
G01 X169.08759 Y25.13660
G01 X169.13821 Y25.18722
G01 X169.14392 Y25.19192
G01 X169.14420 Y25.19195
G01 X169.14433 Y25.19152
G01 X169.13963 Y25.18580
G01 X169.10793 Y25.15410
G01 X169.08654 Y25.12708
G01 X169.07194 Y25.09586
G01 X169.02894 Y24.96685
G01 X169.02322 Y24.94361
G01 X169.02129 Y24.91974
G01 X169.02129 Y24.84460
G01 X169.02322 Y24.82073
G01 X169.02894 Y24.79749
G01 X169.07194 Y24.66845
G01 X169.08654 Y24.63724
G01 X169.10793 Y24.61024
G01 X169.18947 Y24.52865
G01 X169.20773 Y24.51313
G01 X169.22823 Y24.50074
G01 X169.31553 Y24.45707
G01 X169.34603 Y24.44582
G01 X169.55972 Y24.39238
G01 X169.59589 Y24.38794
G01 X169.74466 Y24.38794
G01 X169.78078 Y24.39238
G01 X169.99452 Y24.44580
G01 X170.02502 Y24.45710
G01 X170.11235 Y24.50074
G01 X170.13282 Y24.51313
G01 X170.15106 Y24.52865
G01 X170.23264 Y24.61024
G01 X170.25403 Y24.63726
G01 X170.26864 Y24.66848
G01 X170.31164 Y24.79749
G01 X170.31735 Y24.82073
G01 X170.31928 Y24.84460
G01 X170.31928 Y24.91974
G01 X170.31735 Y24.94361
G01 X170.31164 Y24.96685
G01 X170.26864 Y25.09586
G01 X170.25403 Y25.12708
G01 X170.23259 Y25.15413
G01 X170.20092 Y25.18580
G01 X170.19617 Y25.19167
G01 X170.19630 Y25.19192
G01 X170.19658 Y25.19195
G01 X170.20234 Y25.18722
G01 X170.25296 Y25.13660
G01 X170.25837 Y25.12977
G01 X170.26208 Y25.12189
G01 X170.31933 Y24.95009
G01 X170.32081 Y24.94417
G01 X170.32129 Y24.93807
G01 X170.32129 Y24.82626
G01 X170.32081 Y24.82017
G01 X170.31933 Y24.81425
G01 X170.26206 Y24.64244
G01 X170.25837 Y24.63457
G01 X170.25296 Y24.62774
G01 X170.13950 Y24.51428
G01 X170.13485 Y24.51031
G01 X170.12962 Y24.50716
G01 X170.01850 Y24.45159
G01 X170.00308 Y24.44587
G01 X169.77222 Y24.38819
G01 X169.75398 Y24.38593
G01 X169.58654 Y24.38593
G01 X169.56828 Y24.38819
G01 X169.33747 Y24.44587
G01 X169.32208 Y24.45159
G01 X169.21090 Y24.50716
G01 X169.20570 Y24.51031
G01 X169.20105 Y24.51428
G01 X169.08759 Y24.62774
G01 X169.08220 Y24.63457
G01 X169.07852 Y24.64244
G01 X169.02124 Y24.81425
G01 X169.01977 Y24.82017
G01 X169.01929 Y24.82626
G04 P0 ( dwell for no time -- G64 should not smooth over this point )
G00 Z1.80000 ( retract )

G00 X169.02002 Y23.82977 ( rapid move to begin. )
G01 F200.00000
( Mill infeed pass 1/1 )
G01 Z-0.20000
G04 P0 ( dwell for no time -- G64 should not smooth over this point )
G01 F400.00000
G01 X169.02002 Y23.82977
G01 X169.02012 Y23.83002
G01 X169.02762 Y23.83079
G01 X170.31276 Y23.83079
G01 X170.32032 Y23.83002
G01 X170.32043 Y23.82959
G01 X170.31425 Y23.82517
G01 X169.51118 Y23.36630
G01 X169.48677 Y23.34887
G01 X169.46633 Y23.32690
G01 X169.45073 Y23.30127
G01 X169.44057 Y23.27303
G01 X169.43625 Y23.24334
G01 X169.43800 Y23.21339
G01 X169.44570 Y23.18438
G01 X169.45904 Y23.15751
G01 X169.47753 Y23.13386
G01 X169.50034 Y23.11441
G01 X169.52662 Y23.09990
G01 X169.55525 Y23.09096
G01 X169.58510 Y23.08794
G01 X170.31296 Y23.08794
G01 X170.32035 Y23.08720
G01 X170.32035 Y23.08667
G01 X170.31296 Y23.08593
G01 X169.02782 Y23.08593
G01 X169.02020 Y23.08672
G01 X169.02005 Y23.08695
G01 X169.02632 Y23.09155
G01 X169.82937 Y23.55042
G01 X169.85380 Y23.56785
G01 X169.87422 Y23.58982
G01 X169.88985 Y23.61545
G01 X169.89998 Y23.64369
G01 X169.90430 Y23.67338
G01 X169.90257 Y23.70333
G01 X169.89487 Y23.73234
G01 X169.88151 Y23.75921
G01 X169.86302 Y23.78286
G01 X169.84021 Y23.80231
G01 X169.81395 Y23.81682
G01 X169.78530 Y23.82576
G01 X169.75545 Y23.82878
G01 X169.02762 Y23.82878
G01 X169.02002 Y23.82977
G04 P0 ( dwell for no time -- G64 should not smooth over this point )
G00 Z1.80000 ( retract )

G00 X169.04999 Y16.09644 ( rapid move to begin. )
G01 F200.00000
( Mill infeed pass 1/1 )
G01 Z-0.20000
G04 P0 ( dwell for no time -- G64 should not smooth over this point )
G01 F400.00000
G01 X169.04999 Y16.09644
G01 X169.05010 Y16.09669
G01 X169.05639 Y16.10040
G01 X169.68718 Y16.39478
G01 X169.71141 Y16.40901
G01 X169.73254 Y16.42758
G01 X169.74984 Y16.44975
G01 X169.76264 Y16.47479
G01 X169.77049 Y16.50179
G01 X169.77313 Y16.52979
G01 X169.77049 Y16.55780
G01 X169.76264 Y16.58480
G01 X169.74984 Y16.60985
G01 X169.73254 Y16.63202
G01 X169.71141 Y16.65056
G01 X169.68715 Y16.66481
G01 X169.05639 Y16.95917
G01 X169.05010 Y16.96288
G01 X169.04999 Y16.96313
G01 X169.05012 Y16.96336
G01 X169.05749 Y16.96413
G01 X170.34293 Y16.96413
G01 X170.35032 Y16.96339
G01 X170.35032 Y16.96286
G01 X170.34293 Y16.96212
G01 X169.72645 Y16.96212
G01 X169.69782 Y16.95935
G01 X169.67029 Y16.95115
G01 X169.64484 Y16.93779
G01 X169.62241 Y16.91980
G01 X169.60384 Y16.89783
G01 X169.58987 Y16.87271
G01 X169.58098 Y16.84538
G01 X169.57748 Y16.81686
G01 X169.57953 Y16.78818
G01 X169.58703 Y16.76044
G01 X169.59975 Y16.73466
G01 X169.61718 Y16.71180
G01 X169.63864 Y16.69270
G01 X169.66340 Y16.67810
G01 X169.97290 Y16.53367
G01 X169.97902 Y16.53006
G01 X169.97920 Y16.52981
G01 X169.97902 Y16.52953
G01 X169.97290 Y16.52592
G01 X169.66335 Y16.38148
G01 X169.63864 Y16.36687
G01 X169.61715 Y16.34777
G01 X169.59973 Y16.32491
G01 X169.58703 Y16.29913
G01 X169.57951 Y16.27137
G01 X169.57745 Y16.24271
G01 X169.58093 Y16.21417
G01 X169.58985 Y16.18683
G01 X169.60379 Y16.16174
G01 X169.62236 Y16.13977
G01 X169.64479 Y16.12179
G01 X169.67024 Y16.10843
G01 X169.69777 Y16.10022
G01 X169.72640 Y16.09745
G01 X170.34293 Y16.09745
G01 X170.35032 Y16.09672
G01 X170.35032 Y16.09618
G01 X170.34293 Y16.09545
G01 X169.05749 Y16.09545
G01 X169.05012 Y16.09621
G01 X169.04999 Y16.09644
G04 P0 ( dwell for no time -- G64 should not smooth over this point )
G00 Z1.80000 ( retract )

G00 X169.05129 Y15.01757 ( rapid move to begin. )
G01 F200.00000
( Mill infeed pass 1/1 )
G01 Z-0.20000
G04 P0 ( dwell for no time -- G64 should not smooth over this point )
G01 F400.00000
G01 X169.05129 Y15.01757
G01 X169.05129 Y15.19438
G01 X169.05528 Y15.22859
G01 X169.06701 Y15.26100
G01 X169.10219 Y15.33139
G01 X169.11459 Y15.35186
G01 X169.13011 Y15.37010
G01 X169.20727 Y15.44731
G01 X169.22787 Y15.46448
G01 X169.25121 Y15.47769
G01 X169.27649 Y15.48651
G01 X169.46594 Y15.53385
G01 X169.50206 Y15.53830
G01 X169.89846 Y15.53830
G01 X169.93457 Y15.53385
G01 X170.12401 Y15.48651
G01 X170.14933 Y15.47769
G01 X170.17265 Y15.46448
G01 X170.19322 Y15.44731
G01 X170.27044 Y15.37012
G01 X170.28598 Y15.35186
G01 X170.29838 Y15.33136
G01 X170.33351 Y15.26098
G01 X170.34527 Y15.22859
G01 X170.34925 Y15.19438
G01 X170.34925 Y15.01757
G01 X170.34527 Y14.98336
G01 X170.33351 Y14.95097
G01 X170.29838 Y14.88059
G01 X170.28598 Y14.86009
G01 X170.27044 Y14.84183
G01 X170.19322 Y14.76464
G01 X170.17265 Y14.74747
G01 X170.14933 Y14.73426
G01 X170.12401 Y14.72545
G01 X169.93457 Y14.67810
G01 X169.89846 Y14.67366
G01 X169.50206 Y14.67366
G01 X169.46594 Y14.67810
G01 X169.27649 Y14.72545
G01 X169.25121 Y14.73426
G01 X169.22787 Y14.74747
G01 X169.20727 Y14.76464
G01 X169.13011 Y14.84185
G01 X169.11459 Y14.86009
G01 X169.10219 Y14.88056
G01 X169.06701 Y14.95095
G01 X169.05528 Y14.98336
G01 X169.05129 Y15.01757
G04 P0 ( dwell for no time -- G64 should not smooth over this point )
G00 Z1.80000 ( retract )

G00 X169.04928 Y14.99082 ( rapid move to begin. )
G01 F200.00000
( Mill infeed pass 1/1 )
G01 Z-0.20000
G04 P0 ( dwell for no time -- G64 should not smooth over this point )
G01 F400.00000
G01 X169.04928 Y14.99082
G01 X169.04928 Y15.22113
G01 X169.05030 Y15.22976
G01 X169.05325 Y15.23794
G01 X169.10862 Y15.34869
G01 X169.11177 Y15.35389
G01 X169.11573 Y15.35854
G01 X169.23049 Y15.47335
G01 X169.23574 Y15.47772
G01 X169.24222 Y15.48000
G01 X169.47450 Y15.53804
G01 X169.49274 Y15.54030
G01 X169.90775 Y15.54030
G01 X169.92601 Y15.53804
G01 X170.15830 Y15.48000
G01 X170.16470 Y15.47777
G01 X170.17001 Y15.47335
G01 X170.28484 Y15.35854
G01 X170.28878 Y15.35389
G01 X170.29195 Y15.34869
G01 X170.34730 Y15.23794
G01 X170.35025 Y15.22976
G01 X170.35124 Y15.22113
G01 X170.35124 Y14.99082
G01 X170.35025 Y14.98219
G01 X170.34730 Y14.97401
G01 X170.29195 Y14.86327
G01 X170.28878 Y14.85806
G01 X170.28484 Y14.85341
G01 X170.17001 Y14.73860
G01 X170.16470 Y14.73418
G01 X170.15830 Y14.73195
G01 X169.92601 Y14.67391
G01 X169.90775 Y14.67165
G01 X169.49274 Y14.67165
G01 X169.47450 Y14.67391
G01 X169.24222 Y14.73195
G01 X169.23574 Y14.73423
G01 X169.23049 Y14.73860
G01 X169.11573 Y14.85341
G01 X169.11177 Y14.85806
G01 X169.10862 Y14.86327
G01 X169.05325 Y14.97401
G01 X169.05030 Y14.98219
G01 X169.04928 Y14.99082
G04 P0 ( dwell for no time -- G64 should not smooth over this point )
G00 Z1.80000 ( retract )

G00 X169.04928 Y13.81199 ( rapid move to begin. )
G01 F200.00000
( Mill infeed pass 1/1 )
G01 Z-0.20000
G04 P0 ( dwell for no time -- G64 should not smooth over this point )
G01 F400.00000
G01 X169.04928 Y13.81199
G01 X169.04928 Y13.92377
G01 X169.04977 Y13.92987
G01 X169.05124 Y13.93579
G01 X169.10852 Y14.10762
G01 X169.11220 Y14.11549
G01 X169.11758 Y14.12232
G01 X169.16821 Y14.17295
G01 X169.17392 Y14.17764
G01 X169.17420 Y14.17767
G01 X169.17433 Y14.17724
G01 X169.16963 Y14.17152
G01 X169.13793 Y14.13985
G01 X169.11654 Y14.11280
G01 X169.10194 Y14.08158
G01 X169.05893 Y13.95255
G01 X169.05322 Y13.92931
G01 X169.05129 Y13.90543
G01 X169.05129 Y13.83032
G01 X169.05322 Y13.80645
G01 X169.05893 Y13.78321
G01 X169.10194 Y13.65415
G01 X169.11654 Y13.62293
G01 X169.13793 Y13.59593
G01 X169.21944 Y13.51437
G01 X169.23770 Y13.49885
G01 X169.25820 Y13.48646
G01 X169.34550 Y13.44280
G01 X169.37600 Y13.43154
G01 X169.58972 Y13.37810
G01 X169.62586 Y13.37366
G01 X169.77466 Y13.37366
G01 X169.81080 Y13.37810
G01 X170.02452 Y13.43154
G01 X170.05502 Y13.44280
G01 X170.14235 Y13.48646
G01 X170.16282 Y13.49885
G01 X170.18106 Y13.51437
G01 X170.26262 Y13.59591
G01 X170.28403 Y13.62296
G01 X170.29861 Y13.65418
G01 X170.34158 Y13.78321
G01 X170.34732 Y13.80645
G01 X170.34925 Y13.83030
G01 X170.34925 Y13.90546
G01 X170.34732 Y13.92931
G01 X170.34158 Y13.95255
G01 X170.29861 Y14.08156
G01 X170.28403 Y14.11280
G01 X170.26259 Y14.13985
G01 X170.23092 Y14.17152
G01 X170.22614 Y14.17739
G01 X170.22627 Y14.17764
G01 X170.22655 Y14.17767
G01 X170.23229 Y14.17295
G01 X170.28294 Y14.12232
G01 X170.28837 Y14.11549
G01 X170.29208 Y14.10762
G01 X170.34931 Y13.93579
G01 X170.35075 Y13.92987
G01 X170.35124 Y13.92380
G01 X170.35124 Y13.81196
G01 X170.35075 Y13.80589
G01 X170.34931 Y13.79997
G01 X170.29203 Y13.62814
G01 X170.28837 Y13.62027
G01 X170.28299 Y13.61343
G01 X170.16947 Y13.50000
G01 X170.16483 Y13.49604
G01 X170.15964 Y13.49289
G01 X170.04847 Y13.43731
G01 X170.03308 Y13.43160
G01 X169.80224 Y13.37391
G01 X169.78400 Y13.37165
G01 X169.61652 Y13.37165
G01 X169.59828 Y13.37391
G01 X169.36744 Y13.43160
G01 X169.35203 Y13.43731
G01 X169.24085 Y13.49289
G01 X169.23567 Y13.49604
G01 X169.23102 Y13.50000
G01 X169.11758 Y13.61343
G01 X169.11220 Y13.62027
G01 X169.10852 Y13.62814
G01 X169.05124 Y13.79997
G01 X169.04977 Y13.80589
G01 X169.04928 Y13.81199
G04 P0 ( dwell for no time -- G64 should not smooth over this point )
G00 Z1.80000 ( retract )

G00 X166.95708 Y12.28931 ( rapid move to begin. )
G01 F200.00000
( Mill infeed pass 1/1 )
G01 Z-0.20000
G04 P0 ( dwell for no time -- G64 should not smooth over this point )
G01 F400.00000
G01 X166.95708 Y12.28931
G01 X166.95719 Y12.28956
G01 X166.96468 Y12.29032
G01 X168.10735 Y12.29032
G01 X168.13641 Y12.29319
G01 X168.16437 Y12.30165
G01 X168.19013 Y12.31542
G01 X168.21271 Y12.33396
G01 X168.23125 Y12.35654
G01 X168.24502 Y12.38230
G01 X168.25348 Y12.41026
G01 X168.25635 Y12.43932
G01 X168.25635 Y12.65342
G01 X168.25708 Y12.66081
G01 X168.25723 Y12.66101
G01 X168.25751 Y12.66098
G01 X168.25835 Y12.65342
G01 X168.25835 Y11.92522
G01 X168.25751 Y11.91765
G01 X168.25708 Y11.91783
G01 X168.25635 Y11.92522
G01 X168.25635 Y12.13932
G01 X168.25348 Y12.16838
G01 X168.24502 Y12.19634
G01 X168.23125 Y12.22210
G01 X168.21271 Y12.24468
G01 X168.19013 Y12.26322
G01 X168.16437 Y12.27699
G01 X168.13641 Y12.28545
G01 X168.10735 Y12.28832
G01 X167.38012 Y12.28832
G01 X167.35203 Y12.28565
G01 X167.32495 Y12.27772
G01 X167.29986 Y12.26485
G01 X167.27763 Y12.24747
G01 X167.25909 Y12.22621
G01 X167.24487 Y12.20183
G01 X167.23552 Y12.17521
G01 X167.23133 Y12.14730
G01 X167.23250 Y12.11913
G01 X167.23895 Y12.09164
G01 X167.25048 Y12.06589
G01 X167.26663 Y12.04277
G01 X167.26729 Y12.04199
G01 X167.27044 Y12.03678
G01 X167.32640 Y11.92489
G01 X167.32902 Y11.91776
G01 X167.32856 Y11.91773
G01 X167.32460 Y11.92400
G01 X167.27687 Y12.01948
G01 X167.26448 Y12.03995
G01 X167.24896 Y12.05819
G01 X167.15287 Y12.15428
G01 X167.13016 Y12.17290
G01 X166.96290 Y12.28443
G01 X166.95708 Y12.28931
G04 P0 ( dwell for no time -- G64 should not smooth over this point )
G00 Z1.80000 ( retract )

G00 X166.95835 Y10.82980 ( rapid move to begin. )
G01 F200.00000
( Mill infeed pass 1/1 )
G01 Z-0.20000
G04 P0 ( dwell for no time -- G64 should not smooth over this point )
G01 F400.00000
G01 X166.95835 Y10.82980
G01 X166.95835 Y10.96498
G01 X166.96029 Y10.98885
G01 X166.96600 Y11.01209
G01 X167.00900 Y11.14110
G01 X167.02361 Y11.17232
G01 X167.04499 Y11.19934
G01 X167.12658 Y11.28093
G01 X167.14482 Y11.29645
G01 X167.16529 Y11.30884
G01 X167.25259 Y11.35248
G01 X167.28309 Y11.36378
G01 X167.49683 Y11.41720
G01 X167.53295 Y11.42164
G01 X167.68175 Y11.42164
G01 X167.71787 Y11.41720
G01 X167.93161 Y11.36376
G01 X167.96211 Y11.35248
G01 X168.04941 Y11.30884
G01 X168.06991 Y11.29645
G01 X168.08817 Y11.28093
G01 X168.16971 Y11.19934
G01 X168.19109 Y11.17234
G01 X168.20570 Y11.14112
G01 X168.24870 Y11.01209
G01 X168.25442 Y10.98885
G01 X168.25635 Y10.96498
G01 X168.25635 Y10.82980
G01 X168.25348 Y10.80074
G01 X168.24502 Y10.77277
G01 X168.23125 Y10.74702
G01 X168.21271 Y10.72444
G01 X168.19013 Y10.70590
G01 X168.16437 Y10.69213
G01 X168.13641 Y10.68367
G01 X168.10735 Y10.68080
G01 X167.10735 Y10.68080
G01 X167.07829 Y10.68367
G01 X167.05033 Y10.69213
G01 X167.02457 Y10.70590
G01 X167.00199 Y10.72444
G01 X166.98345 Y10.74702
G01 X166.96968 Y10.77277
G01 X166.96122 Y10.80074
G01 X166.95835 Y10.82980
G04 P0 ( dwell for no time -- G64 should not smooth over this point )
G00 Z1.80000 ( retract )

G00 X166.95635 Y10.68713 ( rapid move to begin. )
G01 F200.00000
( Mill infeed pass 1/1 )
G01 Z-0.20000
G04 P0 ( dwell for no time -- G64 should not smooth over this point )
G01 F400.00000
G01 X166.95635 Y10.68713
G01 X166.95635 Y10.98331
G01 X166.95683 Y10.98941
G01 X166.95830 Y10.99533
G01 X167.01558 Y11.16713
G01 X167.01926 Y11.17501
G01 X167.02465 Y11.18184
G01 X167.13814 Y11.29530
G01 X167.14278 Y11.29927
G01 X167.14799 Y11.30241
G01 X167.25914 Y11.35799
G01 X167.27453 Y11.36371
G01 X167.50539 Y11.42139
G01 X167.52363 Y11.42365
G01 X167.69107 Y11.42365
G01 X167.70931 Y11.42139
G01 X167.94017 Y11.36371
G01 X167.95556 Y11.35799
G01 X168.06673 Y11.30241
G01 X168.07194 Y11.29927
G01 X168.07659 Y11.29530
G01 X168.19005 Y11.18184
G01 X168.19544 Y11.17501
G01 X168.19912 Y11.16713
G01 X168.25640 Y10.99533
G01 X168.25787 Y10.98941
G01 X168.25835 Y10.98331
G01 X168.25835 Y10.68713
G01 X168.25762 Y10.67968
G01 X168.25741 Y10.67953
G01 X168.25002 Y10.67879
G01 X166.96468 Y10.67879
G01 X166.95708 Y10.67973
G01 X166.95635 Y10.68713
G04 P0 ( dwell for no time -- G64 should not smooth over this point )
G00 Z1.80000 ( retract )

G00 X166.95635 Y9.57283 ( rapid move to begin. )
G01 F200.00000
( Mill infeed pass 1/1 )
G01 Z-0.20000
G04 P0 ( dwell for no time -- G64 should not smooth over this point )
G01 F400.00000
G01 X166.95635 Y9.57283
G01 X166.95635 Y10.17722
G01 X166.95708 Y10.18461
G01 X166.95724 Y10.18481
G01 X166.95752 Y10.18479
G01 X166.95835 Y10.17722
G01 X166.95835 Y9.71550
G01 X166.96122 Y9.68644
G01 X166.96968 Y9.65848
G01 X166.98345 Y9.63272
G01 X167.00199 Y9.61014
G01 X167.02457 Y9.59160
G01 X167.05033 Y9.57783
G01 X167.07829 Y9.56937
G01 X167.10735 Y9.56650
G01 X167.42640 Y9.56650
G01 X167.45546 Y9.56937
G01 X167.48342 Y9.57783
G01 X167.50918 Y9.59160
G01 X167.53176 Y9.61014
G01 X167.55030 Y9.63272
G01 X167.56407 Y9.65848
G01 X167.57253 Y9.68644
G01 X167.57540 Y9.71550
G01 X167.57540 Y9.99152
G01 X167.57613 Y9.99891
G01 X167.57657 Y9.99909
G01 X167.57740 Y9.99152
G01 X167.57740 Y9.71550
G01 X167.58027 Y9.68644
G01 X167.58873 Y9.65848
G01 X167.60250 Y9.63272
G01 X167.62104 Y9.61014
G01 X167.64362 Y9.59160
G01 X167.66938 Y9.57783
G01 X167.69734 Y9.56937
G01 X167.72640 Y9.56650
G01 X168.25002 Y9.56650
G01 X168.25741 Y9.56577
G01 X168.25762 Y9.56539
G01 X168.25741 Y9.56523
G01 X168.25002 Y9.56450
G01 X166.96468 Y9.56450
G01 X166.95724 Y9.56523
G01 X166.95708 Y9.56544
G01 X166.95635 Y9.57283
G04 P0 ( dwell for no time -- G64 should not smooth over this point )
G00 Z1.80000 ( retract )

G00 X169.05129 Y10.37473 ( rapid move to begin. )
G01 F200.00000
( Mill infeed pass 1/1 )
G01 Z-0.20000
G04 P0 ( dwell for no time -- G64 should not smooth over this point )
G01 F400.00000
G01 X169.05129 Y10.37473
G01 X169.05528 Y10.34049
G01 X169.06701 Y10.30808
G01 X169.10219 Y10.23772
G01 X169.11459 Y10.21725
G01 X169.13008 Y10.19901
G01 X169.20727 Y10.12180
G01 X169.22787 Y10.10460
G01 X169.25121 Y10.09139
G01 X169.27654 Y10.08258
G01 X169.46594 Y10.03523
G01 X169.50206 Y10.03079
G01 X169.89846 Y10.03079
G01 X169.93457 Y10.03523
G01 X170.12401 Y10.08258
G01 X170.14933 Y10.09139
G01 X170.17265 Y10.10460
G01 X170.19322 Y10.12177
G01 X170.27046 Y10.19899
G01 X170.28598 Y10.21725
G01 X170.29838 Y10.23775
G01 X170.33351 Y10.30811
G01 X170.34527 Y10.34049
G01 X170.34925 Y10.37471
G01 X170.34925 Y10.55154
G01 X170.34527 Y10.58575
G01 X170.33351 Y10.61814
G01 X170.29838 Y10.68850
G01 X170.28598 Y10.70899
G01 X170.27046 Y10.72726
G01 X170.19322 Y10.80447
G01 X170.17265 Y10.82164
G01 X170.14933 Y10.83485
G01 X170.12401 Y10.84367
G01 X169.93457 Y10.89101
G01 X169.89846 Y10.89546
G01 X169.50206 Y10.89546
G01 X169.46594 Y10.89101
G01 X169.27654 Y10.84367
G01 X169.25121 Y10.83485
G01 X169.22787 Y10.82164
G01 X169.20727 Y10.80445
G01 X169.13008 Y10.72723
G01 X169.11459 Y10.70899
G01 X169.10219 Y10.68852
G01 X169.06701 Y10.61816
G01 X169.05528 Y10.58575
G01 X169.05129 Y10.55151
G01 X169.05129 Y10.37473
G04 P0 ( dwell for no time -- G64 should not smooth over this point )
G00 Z1.80000 ( retract )

G00 X169.04928 Y10.34796 ( rapid move to begin. )
G01 F200.00000
( Mill infeed pass 1/1 )
G01 Z-0.20000
G04 P0 ( dwell for no time -- G64 should not smooth over this point )
G01 F400.00000
G01 X169.04928 Y10.34796
G01 X169.05030 Y10.33932
G01 X169.05325 Y10.33112
G01 X169.10862 Y10.22043
G01 X169.11177 Y10.21522
G01 X169.11570 Y10.21057
G01 X169.23049 Y10.09574
G01 X169.23574 Y10.09137
G01 X169.24225 Y10.08908
G01 X169.47450 Y10.03104
G01 X169.49274 Y10.02878
G01 X169.90775 Y10.02878
G01 X169.92601 Y10.03104
G01 X170.15830 Y10.08908
G01 X170.16470 Y10.09132
G01 X170.17001 Y10.09574
G01 X170.28484 Y10.21057
G01 X170.28878 Y10.21522
G01 X170.29195 Y10.22043
G01 X170.34730 Y10.33114
G01 X170.35025 Y10.33932
G01 X170.35124 Y10.34796
G01 X170.35124 Y10.57829
G01 X170.35025 Y10.58692
G01 X170.34730 Y10.59510
G01 X170.29195 Y10.70582
G01 X170.28878 Y10.71103
G01 X170.28484 Y10.71567
G01 X170.17001 Y10.83051
G01 X170.16470 Y10.83493
G01 X170.15830 Y10.83716
G01 X169.92601 Y10.89520
G01 X169.90775 Y10.89746
G01 X169.49274 Y10.89746
G01 X169.47450 Y10.89520
G01 X169.24225 Y10.83716
G01 X169.23574 Y10.83488
G01 X169.23049 Y10.83051
G01 X169.11570 Y10.71567
G01 X169.11177 Y10.71103
G01 X169.10862 Y10.70582
G01 X169.05325 Y10.59513
G01 X169.05030 Y10.58692
G01 X169.04928 Y10.57829
G01 X169.04928 Y10.34796
G04 P0 ( dwell for no time -- G64 should not smooth over this point )
G00 Z1.80000 ( retract )

G00 X169.05002 Y9.47262 ( rapid move to begin. )
G01 F200.00000
( Mill infeed pass 1/1 )
G01 Z-0.20000
G04 P0 ( dwell for no time -- G64 should not smooth over this point )
G01 F400.00000
G01 X169.05002 Y9.47262
G01 X169.05012 Y9.47288
G01 X169.05761 Y9.47364
G01 X170.34273 Y9.47364
G01 X170.35027 Y9.47288
G01 X170.35040 Y9.47245
G01 X170.34423 Y9.46803
G01 X169.54115 Y9.00915
G01 X169.51677 Y8.99173
G01 X169.49635 Y8.96975
G01 X169.48073 Y8.94413
G01 X169.47057 Y8.91588
G01 X169.46625 Y8.88619
G01 X169.46795 Y8.85624
G01 X169.47567 Y8.82724
G01 X169.48906 Y8.80036
G01 X169.50752 Y8.77671
G01 X169.53036 Y8.75726
G01 X169.55662 Y8.74276
G01 X169.58527 Y8.73381
G01 X169.61512 Y8.73079
G01 X170.34293 Y8.73079
G01 X170.35032 Y8.73006
G01 X170.35032 Y8.72952
G01 X170.34293 Y8.72879
G01 X169.05782 Y8.72879
G01 X169.05020 Y8.72957
G01 X169.05004 Y8.72980
G01 X169.05632 Y8.73440
G01 X169.85934 Y9.19327
G01 X169.88377 Y9.21070
G01 X169.90420 Y9.23267
G01 X169.91982 Y9.25830
G01 X169.92998 Y9.28654
G01 X169.93429 Y9.31624
G01 X169.93254 Y9.34618
G01 X169.92482 Y9.37519
G01 X169.91149 Y9.40206
G01 X169.89302 Y9.42571
G01 X169.87019 Y9.44517
G01 X169.84392 Y9.45967
G01 X169.81527 Y9.46861
G01 X169.78543 Y9.47163
G01 X169.05761 Y9.47163
G01 X169.05002 Y9.47262
G04 P0 ( dwell for no time -- G64 should not smooth over this point )
G00 Z1.80000 ( retract )

G00 X166.95708 Y8.26551 ( rapid move to begin. )
G01 F200.00000
( Mill infeed pass 1/1 )
G01 Z-0.20000
G04 P0 ( dwell for no time -- G64 should not smooth over this point )
G01 F400.00000
G01 X166.95708 Y8.26551
G01 X166.96460 Y8.26686
G01 X168.25086 Y8.69561
G01 X168.25749 Y8.69856
G01 X168.25767 Y8.69879
G01 X168.25749 Y8.69909
G01 X168.25086 Y8.70204
G01 X166.96460 Y9.13082
G01 X166.95708 Y9.13216
G01 X166.95721 Y9.13193
G01 X166.96397 Y9.12891
G01 X167.83013 Y8.84019
G01 X167.85627 Y8.82858
G01 X167.87969 Y8.81220
G01 X167.89955 Y8.79165
G01 X167.91515 Y8.76770
G01 X167.92587 Y8.74118
G01 X167.93133 Y8.71311
G01 X167.93133 Y8.68454
G01 X167.92587 Y8.65647
G01 X167.91515 Y8.62998
G01 X167.89955 Y8.60600
G01 X167.87969 Y8.58545
G01 X167.85624 Y8.56907
G01 X167.83013 Y8.55749
G01 X166.96397 Y8.26877
G01 X166.95721 Y8.26574
G01 X166.95708 Y8.26551
G04 P0 ( dwell for no time -- G64 should not smooth over this point )
G00 Z1.80000 ( retract )

G00 X169.04928 Y5.82628 ( rapid move to begin. )
G01 F200.00000
( Mill infeed pass 1/1 )
G01 Z-0.20000
G04 P0 ( dwell for no time -- G64 should not smooth over this point )
G01 F400.00000
G01 X169.04928 Y5.82628
G01 X169.04928 Y5.93806
G01 X169.04977 Y5.94416
G01 X169.05124 Y5.95008
G01 X169.10852 Y6.12191
G01 X169.11220 Y6.12978
G01 X169.11758 Y6.13661
G01 X169.16821 Y6.18724
G01 X169.17392 Y6.19193
G01 X169.17420 Y6.19196
G01 X169.17433 Y6.19153
G01 X169.16963 Y6.18581
G01 X169.13793 Y6.15414
G01 X169.11654 Y6.12709
G01 X169.10194 Y6.09587
G01 X169.05893 Y5.96684
G01 X169.05322 Y5.94360
G01 X169.05129 Y5.91972
G01 X169.05129 Y5.84462
G01 X169.05322 Y5.82074
G01 X169.05893 Y5.79750
G01 X169.10194 Y5.66844
G01 X169.11654 Y5.63722
G01 X169.13793 Y5.61022
G01 X169.21944 Y5.52866
G01 X169.23770 Y5.51315
G01 X169.25820 Y5.50075
G01 X169.34552 Y5.45709
G01 X169.37595 Y5.44584
G01 X169.58969 Y5.39237
G01 X169.62586 Y5.38792
G01 X169.77466 Y5.38792
G01 X169.81083 Y5.39237
G01 X170.02454 Y5.44584
G01 X170.05500 Y5.45709
G01 X170.14235 Y5.50075
G01 X170.16282 Y5.51315
G01 X170.18106 Y5.52866
G01 X170.26262 Y5.61020
G01 X170.28403 Y5.63725
G01 X170.29861 Y5.66847
G01 X170.34158 Y5.79750
G01 X170.34732 Y5.82074
G01 X170.34925 Y5.84459
G01 X170.34925 Y5.91975
G01 X170.34732 Y5.94360
G01 X170.34158 Y5.96684
G01 X170.29861 Y6.09585
G01 X170.28403 Y6.12709
G01 X170.26259 Y6.15414
G01 X170.23092 Y6.18581
G01 X170.22614 Y6.19168
G01 X170.22627 Y6.19193
G01 X170.22655 Y6.19196
G01 X170.23229 Y6.18724
G01 X170.28294 Y6.13661
G01 X170.28837 Y6.12978
G01 X170.29208 Y6.12191
G01 X170.34931 Y5.95008
G01 X170.35075 Y5.94416
G01 X170.35124 Y5.93809
G01 X170.35124 Y5.82625
G01 X170.35075 Y5.82018
G01 X170.34931 Y5.81426
G01 X170.29203 Y5.64243
G01 X170.28837 Y5.63456
G01 X170.28299 Y5.62772
G01 X170.16947 Y5.51429
G01 X170.16483 Y5.51033
G01 X170.15964 Y5.50718
G01 X170.04847 Y5.45160
G01 X170.03308 Y5.44589
G01 X169.80224 Y5.38818
G01 X169.78400 Y5.38592
G01 X169.61652 Y5.38592
G01 X169.59828 Y5.38818
G01 X169.36744 Y5.44589
G01 X169.35203 Y5.45160
G01 X169.24085 Y5.50718
G01 X169.23567 Y5.51033
G01 X169.23102 Y5.51429
G01 X169.11758 Y5.62772
G01 X169.11220 Y5.63456
G01 X169.10852 Y5.64243
G01 X169.05124 Y5.81426
G01 X169.04977 Y5.82018
G01 X169.04928 Y5.82628
G04 P0 ( dwell for no time -- G64 should not smooth over this point )
G00 Z1.80000 ( retract )

G00 X169.05002 Y4.82978 ( rapid move to begin. )
G01 F200.00000
( Mill infeed pass 1/1 )
G01 Z-0.20000
G04 P0 ( dwell for no time -- G64 should not smooth over this point )
G01 F400.00000
G01 X169.05002 Y4.82978
G01 X169.05012 Y4.83004
G01 X169.05761 Y4.83080
G01 X170.34273 Y4.83080
G01 X170.35027 Y4.83004
G01 X170.35040 Y4.82961
G01 X170.34423 Y4.82519
G01 X169.54115 Y4.36628
G01 X169.51674 Y4.34886
G01 X169.49630 Y4.32689
G01 X169.48068 Y4.30126
G01 X169.47054 Y4.27302
G01 X169.46625 Y4.24332
G01 X169.46795 Y4.21338
G01 X169.47567 Y4.18437
G01 X169.48903 Y4.15750
G01 X169.50750 Y4.13385
G01 X169.53033 Y4.11439
G01 X169.55660 Y4.09989
G01 X169.58522 Y4.09095
G01 X169.61509 Y4.08793
G01 X170.34293 Y4.08793
G01 X170.35032 Y4.08719
G01 X170.35032 Y4.08666
G01 X170.34293 Y4.08592
G01 X169.05782 Y4.08592
G01 X169.05020 Y4.08671
G01 X169.05004 Y4.08694
G01 X169.05632 Y4.09153
G01 X169.85934 Y4.55043
G01 X169.88380 Y4.56786
G01 X169.90420 Y4.58983
G01 X169.91982 Y4.61546
G01 X169.93000 Y4.64370
G01 X169.93429 Y4.67340
G01 X169.93254 Y4.70334
G01 X169.92487 Y4.73235
G01 X169.91151 Y4.75922
G01 X169.89305 Y4.78287
G01 X169.87021 Y4.80233
G01 X169.84395 Y4.81683
G01 X169.81527 Y4.82577
G01 X169.78545 Y4.82879
G01 X169.05761 Y4.82879
G01 X169.05002 Y4.82978

G04 P0 ( dwell for no time -- G64 should not smooth over this point )
G00 Z30.000000 ( retract )

M5 ( Spindle off. )
G04 P1.000000
M9 ( Coolant off. )
M2 ( Program end. )

